#dP2021  4 14 18  0  0.00000000      96 __u+U ITR00 EXT  IAC
## 2153 324000.00000000   900.00000000 59318 0.7500000000000
+  116   C06C07C08C09C10C11C12C13C14C16C19C20C21C22C23C24C25
+        C26C27C28C29C30C32C33C34C35C36C37C38C39C40C41C42C43
+        C44C45C46E01E02E03E04E05E07E08E09E11E12E13E14E15E18
+        E19E21E24E25E26E27E30E31E33E36G01G02G03G04G05G06G07
+        G08G09G10G12G13G14G15G16G17G18G19G20G21G22G23G24G25
+        G26G27G28G29G30G31G32J01J02J03R01R02R03R04R05R07R08
+        R09R11R12R13R14R15R16R17R18R19R20R21R22R24  0  0  0
++        11 10  9 11 10 11 10  9  9 12  8  8 10  9  8  8 11
++         9 10  8  8  9 10  8  9  9 10 10 11 12 10 10 10  9
++        10 10 11  8 11  9  8  8  9  8  9 11 10  9  9  9  8
++         9  8  9  9  8  9  9  8 10  9  8  8  8  8  9  9  9
++         8  9  8  9  9 10  9  8  8  9 10 10  9  7  9  8  9
++         9  9  9  8  7  9  9 10  9 12  9  9  9 10 10  9  9
++        11  9  8 10  9  8  8  8  9  9  9  8  9  8  0  0  0
%c M  cc GPS ccc cccc cccc cccc cccc ccccc ccccc ccccc ccccc
%c cc cc ccc ccc cccc cccc cccc cccc ccccc ccccc ccccc ccccc
%f  0.0000000  0.000000000  0.00000000000  0.000000000000000
%f  0.0000000  0.000000000  0.00000000000  0.000000000000000
%i    0    0    0    0      0      0      0      0         0
%i    0    0    0    0      0      0      0      0         0
/* IAC                                ULTRA-RAPID PREDICTION
/* S/V CLOCKS ARE ALIGNED TO GNSS TIME                      
/* G:C1WC2W R:C1PC2P E:C1XC5X C:C2IC6I J:C1CC2S             
/* PCV:IGS14_2148 OL/AL:FES2004  NONE     YN ORB:CoN CLK:CoN
*  2021 04 15  4  0  0.00000000
PC06 -13438.825954  37553.156000 -12406.653634    279.602586
PC07 -12464.306242  23648.050749  32871.519898   -121.634683
PC08 -26340.647779  25680.395261 -20825.797335   -892.271622
PC09  -4893.584395  41576.084280   2507.657720    594.889973
PC10   3387.507121  30054.035499  29737.744088    -56.386557
PC11  -2273.783574  26979.731280  -6772.168384   -808.702464
PC12 -12694.325453  22428.867753  10750.758674    927.671002
PC13 -12402.841057  27210.903343 -29718.138281    222.037926
PC14   7050.607692  21705.053989 -16068.702411    471.582776
PC16 -10919.373736  39424.772400  -9582.785184   -784.335555
PC19 -15318.029005 -21823.577036   8233.963758    799.133697
PC20    899.223587 -18675.181035  20728.284789   -955.324783
PC21 -17356.624618   4183.724411 -21416.923707   -942.770499
PC22 -23111.728792 -12405.939191  -9468.158759   -964.156547
PC23  24226.840787   2841.559210  13555.101562   -888.280767
PC24 -12784.413607  17191.437860  17883.528268   -814.372255
PC25   9232.619395  13794.676218  22423.743444   -932.313023
PC26 -25306.447883  11165.451002   3825.521931    920.864717
PC27  16118.390883 -14377.627267 -17701.198790    515.623535
PC28  14674.425062   6386.185712 -22859.557733    -86.115446
PC29  -5535.759995 -23138.023962  14583.553053    378.993168
PC30   7409.497107 -26788.101433  -2662.429140    460.373461
PC32  17367.647691  -4319.894424  21435.701933   -940.835543
PC33  15431.171789  21754.470586  -8230.540578   -941.788204
PC34  -7021.748365  26921.415173   1946.321846   -695.629245
PC35 -14840.468733  -6295.516211  22775.415790   -326.523339
PC36  -8545.374747 -14142.708269 -22467.314631   -731.553548
PC37  25844.739448 -10063.731354  -2987.889363   -896.689637
PC38 -21650.407850  27884.600927 -23121.470478    142.371657
PC39  -6633.953360  40915.968595  -7342.151245     30.331883
PC40    268.692771  26269.494327  33028.233457    151.265225
PC41  23180.972513  12504.005228   9271.533163   -944.363867
PC42  -1537.245552  18352.549154 -20921.657360   -924.466758
PC43   5189.671913  23455.914424 -14184.034237   -686.037213
PC44 -15751.527922  14653.348199  17744.429768    138.284654
PC45 -24274.363745  -2645.857803 -13527.639399    414.145811
PC46  11761.302075 -17226.410211 -18519.553414    315.729966
PE01  10685.565762 -14250.633389 -23643.542909  -1087.224105
PE02 -10580.229931  14284.368993  23665.285172    212.264837
PE03  -4148.389955  23860.476577 -17023.573977   -420.246894
PE04 -10001.725306 -27858.422589    174.213935   -750.392301
PE05 -16099.072510   5775.222891 -24151.064610   -288.745073
PE07  18540.307961  15475.768474  17132.907033   -525.740012
PE08  10361.400896  27734.652746    152.031212   6017.443586
PE09 -18533.795523 -15252.826049 -17302.474764   5700.503382
PE11 -16789.953400  -4293.419642  23986.778164   6093.766213
PE12   -685.825778 -20797.983444  21063.054431   5259.141628
PE13  16506.450321   4580.683111 -24136.332996    415.035525
PE14  -5711.299081 -23929.285999   4348.104921  -1397.349285
PE15    753.346765  20713.188195 -21120.324713    819.396580
PE18  15306.736061  22457.049061 -16571.618927  -1528.728391
PE19   5710.554840 -22334.593448  18578.094051    252.546391
PE21  26484.359592  -3949.814619 -12616.967259   -659.397553
PE24 -27155.531406  -9641.756518  -6838.497125   -847.774972
PE25 -26586.727292   3815.721731  12447.390034   -531.044693
PE26  22613.402612 -14681.786142 -12218.457044   1923.277958
PE27  27502.891222   9053.706111   6123.378952    -11.457258
PE30  11311.030829  16860.649118  21521.303670   3024.079788
PE31 -12357.482267 -16642.995375 -21129.124131   -480.176042
PE33  15415.417651 -24632.181751   5686.874944   -467.559936
PE36 -22507.911892  14202.515173  12944.900637   -193.861228
PG01 -10232.425327  19974.179230 -14175.260402    715.913477
PG02  21656.033687 -13318.775728  -7102.797694   -595.759044
PG03   -676.473214  15646.617340 -21545.447015   -137.131051
PG04  -2039.635381  25474.994453  -7121.777931   -191.860871
PG05  17847.217846  -7353.952519  18174.934754    -39.122772
PG06  20213.022720  -1517.266665 -17135.445868      7.345117
PG07   3857.364115  16033.830070  21070.270221    122.371343
PG08  -6915.787817  20710.462407  14898.181880    -17.543013
PG09   6602.271488  25506.492978   3206.630403   -338.980263
PG10 -23633.644211 -11909.654994   3686.119086   -102.217117
PG12   4776.531717 -14356.943372 -22091.224669    -27.949629
PG13  12995.788044 -12637.522071  19234.468617    120.067587
PG14  22635.500121  13278.746044   4167.623548     95.951633
PG15   4914.512285 -21667.849758  13927.312958   -156.104009
PG16 -20757.437379   2120.688949  16454.750804   -309.874619
PG17  12785.666236  15409.950168 -17022.163097    426.566452
PG18  -6928.905716 -13552.214172  21754.607508    351.618643
PG19  14673.902130   6475.519487 -21474.702596    -12.800878
PG20  -4956.064965 -16445.943800  20273.811728    523.160495
PG21 -15930.626932  20001.050110  -5478.377299    111.064984
PG22 -10743.226556  12697.583207 -20475.886052   -637.637111
PG23 -16475.272024 -15918.270266  13457.217747    113.415137
PG24  13281.256877 -21074.635993  -8873.787163      6.435617
PG25  -9867.275630 -17310.315595 -17958.230879    118.786991
PG26 -25304.406782  -2469.712235   8087.719135     72.307798
PG27 -12868.552075   9559.108835  20931.687194   -112.923121
PG28  23004.995332  13008.503211   1835.624551    586.593555
PG29  -4605.057219 -25833.123374   3911.511811   -330.206085
PG30  15916.191116   6654.053068  20304.214733   -412.988960
PG31 -22002.211825   3500.770321 -14884.985964   -111.655066
PG32 -14803.084253 -12806.221339 -17922.555428     22.086271
PJ01 -21452.383107  19787.347266 -25865.314522   -365.835417
PJ02 -29753.114559  22945.909493  24039.001483      5.526428
PJ03 -29697.767736  26299.797499  19313.994112     -3.423908
PR01   3705.140984 -12502.552026  21927.043493     77.898300
PR02 -11398.036959 -21596.533383   7519.462516    474.842191
PR03 -17497.838835 -15723.698945  -9876.871680     34.226518
PR04 -13471.799160  -1185.244686 -21596.410746     82.450177
PR05  -2052.863979  14006.512337 -21197.913462     69.998906
PR07  17516.452220  15194.841777  10622.881066    -42.537383
PR08  13537.698603    985.644867  21652.545910    -58.553631
PR09   5987.487921  10412.032742  22524.342242    -12.012156
PR11  24802.725823  -4899.922561  -3424.681291      0.739958
PR12  13514.611386 -10635.057791 -18808.374353    220.943712
PR13  -5229.570185 -10282.393484 -22770.265502    -53.475481
PR14 -21556.123267  -3766.758955 -13089.645384     63.153831
PR15 -24756.909988   4765.745891   3901.361197    104.362321
PR16 -12441.197486  11226.473807  19255.244918    -13.797179
PR17  -8431.734910  -6861.340562  23080.675698    416.204050
PR18 -13818.060191  10281.459869  18802.645628     73.231473
PR19 -12774.043141  21444.003809   5248.217004   -139.831297
PR20  -3010.244387  20936.096124 -14214.181127    -47.327373
PR21   8896.732389   5702.843747 -23217.799707   -201.839406
PR22  14000.142978 -11368.361165 -18103.565751   -107.854312
PR24   1987.305370 -20779.292555  14672.424594     38.897341
EOF
